{
  "type": "FeatureCollection",
  "features": [
    {
      "type": "Feature",
      "properties": {
        "norad_id": 25590,
        "name": "COSMOS 2361",
        "group": "musson",
        "lat": 69.92100897297114,
        "lon": -1.8036000709145315,
        "alt_km": 1003.2789538248499,
        "timestamp": "2025-12-20T11:30:28.646955+00:00",
        "meta_object_name": "COSMOS 2361",
        "meta_object_id": "1998-076A",
        "meta_epoch": "2025-12-20T00:58:40.145952",
        "meta_mean_motion": 13.73218347,
        "meta_eccentricity": 0.0030158,
        "meta_inclination": 82.9341,
        "meta_ra_of_asc_node": 338.6861,
        "meta_arg_of_pericenter": 244.4261,
        "meta_mean_anomaly": 179.0075,
        "meta_ephemeris_type": 0,
        "meta_classification_type": "U",
        "meta_norad_cat_id": 25590,
        "meta_element_set_no": 999,
        "meta_rev_at_epoch": 35211,
        "meta_bstar": 3.9175e-05,
        "meta_mean_motion_dot": 5.1e-07,
        "meta_mean_motion_ddot": 0,
        "tle_line1": "1 25590U 98076A   25354.04074243  .00000051  00000+0  39175-4 0  9998",
        "tle_line2": "2 25590  82.9341 338.6861 0030158 244.4261 179.0075 13.73218347352115"
      },
      "geometry": {
        "type": "Point",
        "coordinates": [
          -1.8036000709145315,
          69.92100897297114
        ]
      }
    },
    {
      "type": "Feature",
      "properties": {
        "norad_id": 26818,
        "name": "COSMOS 2378",
        "group": "musson",
        "lat": 10.30242174131816,
        "lon": 172.6925129387023,
        "alt_km": 962.6790001290829,
        "timestamp": "2025-12-20T11:30:28.646976+00:00",
        "meta_object_name": "COSMOS 2378",
        "meta_object_id": "2001-023A",
        "meta_epoch": "2025-12-20T02:15:33.782400",
        "meta_mean_motion": 13.74142577,
        "meta_eccentricity": 0.0032857,
        "meta_inclination": 82.927,
        "meta_ra_of_asc_node": 354.2713,
        "meta_arg_of_pericenter": 184.1929,
        "meta_mean_anomaly": 240.1457,
        "meta_ephemeris_type": 0,
        "meta_classification_type": "U",
        "meta_norad_cat_id": 26818,
        "meta_element_set_no": 999,
        "meta_rev_at_epoch": 23024,
        "meta_bstar": 2.818e-05,
        "meta_mean_motion_dot": 4.2e-07,
        "meta_mean_motion_ddot": 0,
        "tle_line1": "1 26818U 01023A   25354.09414100  .00000042  00000+0  28180-4 0  9997",
        "tle_line2": "2 26818  82.9270 354.2713 0032857 184.1929 240.1457 13.74142577230244"
      },
      "geometry": {
        "type": "Point",
        "coordinates": [
          172.6925129387023,
          10.30242174131816
        ]
      }
    },
    {
      "type": "Feature",
      "properties": {
        "norad_id": 27436,
        "name": "COSMOS 2389",
        "group": "musson",
        "lat": 44.228090921671665,
        "lon": -51.82716239131515,
        "alt_km": 942.6202629086192,
        "timestamp": "2025-12-20T11:30:28.646989+00:00",
        "meta_object_name": "COSMOS 2389",
        "meta_object_id": "2002-026A",
        "meta_epoch": "2025-12-19T23:24:18.627840",
        "meta_mean_motion": 13.75155401,
        "meta_eccentricity": 0.0047366,
        "meta_inclination": 82.9508,
        "meta_ra_of_asc_node": 301.6284,
        "meta_arg_of_pericenter": 41.0478,
        "meta_mean_anomaly": 28.5622,
        "meta_ephemeris_type": 0,
        "meta_classification_type": "U",
        "meta_norad_cat_id": 27436,
        "meta_element_set_no": 999,
        "meta_rev_at_epoch": 18248,
        "meta_bstar": 3.0288e-05,
        "meta_mean_motion_dot": 4.5e-07,
        "meta_mean_motion_ddot": 0,
        "tle_line1": "1 27436U 02026A   25353.97521560  .00000045  00000+0  30288-4 0  9998",
        "tle_line2": "2 27436  82.9508 301.6284 0047366  41.0478  28.5622 13.75155401182480"
      },
      "geometry": {
        "type": "Point",
        "coordinates": [
          -51.82716239131515,
          44.228090921671665
        ]
      }
    },
    {
      "type": "Feature",
      "properties": {
        "norad_id": 27818,
        "name": "COSMOS 2398",
        "group": "musson",
        "lat": -77.60044759418433,
        "lon": -127.26700115166786,
        "alt_km": 1022.1881459292663,
        "timestamp": "2025-12-20T11:30:28.647000+00:00",
        "meta_object_name": "COSMOS 2398",
        "meta_object_id": "2003-023A",
        "meta_epoch": "2025-12-20T03:41:35.541312",
        "meta_mean_motion": 13.72386473,
        "meta_eccentricity": 0.0032724,
        "meta_inclination": 82.9484,
        "meta_ra_of_asc_node": 267.2349,
        "meta_arg_of_pericenter": 92.0261,
        "meta_mean_anomaly": 20.4538,
        "meta_ephemeris_type": 0,
        "meta_classification_type": "U",
        "meta_norad_cat_id": 27818,
        "meta_element_set_no": 999,
        "meta_rev_at_epoch": 12918,
        "meta_bstar": 5.5883e-05,
        "meta_mean_motion_dot": 6.7e-07,
        "meta_mean_motion_ddot": 0,
        "tle_line1": "1 27818U 03023A   25354.15388358  .00000067  00000+0  55883-4 0  9999",
        "tle_line2": "2 27818  82.9484 267.2349 0032724  92.0261  20.4538 13.72386473129181"
      },
      "geometry": {
        "type": "Point",
        "coordinates": [
          -127.26700115166786,
          -77.60044759418433
        ]
      }
    },
    {
      "type": "Feature",
      "properties": {
        "norad_id": 28380,
        "name": "COSMOS 2407",
        "group": "musson",
        "lat": -44.88832425655182,
        "lon": 34.232640014768066,
        "alt_km": 1012.5054806985945,
        "timestamp": "2025-12-20T11:30:28.647011+00:00",
        "meta_object_name": "COSMOS 2407",
        "meta_object_id": "2004-028A",
        "meta_epoch": "2025-12-20T04:01:37.975296",
        "meta_mean_motion": 13.76314508,
        "meta_eccentricity": 0.0039991,
        "meta_inclination": 82.9598,
        "meta_ra_of_asc_node": 207.3929,
        "meta_arg_of_pericenter": 34.5963,
        "meta_mean_anomaly": 87.2263,
        "meta_ephemeris_type": 0,
        "meta_classification_type": "U",
        "meta_norad_cat_id": 28380,
        "meta_element_set_no": 999,
        "meta_rev_at_epoch": 7525,
        "meta_bstar": 5.6614e-05,
        "meta_mean_motion_dot": 7.1e-07,
        "meta_mean_motion_ddot": 0,
        "tle_line1": "1 28380U 04028A   25354.16780064  .00000071  00000+0  56614-4 0  9999",
        "tle_line2": "2 28380  82.9598 207.3929 0039991  34.5963  87.2263 13.76314508 75252"
      },
      "geometry": {
        "type": "Point",
        "coordinates": [
          34.232640014768066,
          -44.88832425655182
        ]
      }
    },
    {
      "type": "Feature",
      "properties": {
        "norad_id": 28521,
        "name": "COSMOS 2414",
        "group": "musson",
        "lat": 82.86566552382985,
        "lon": -82.62451106158947,
        "alt_km": 901.6218432456117,
        "timestamp": "2025-12-20T11:30:28.647022+00:00",
        "meta_object_name": "COSMOS 2414",
        "meta_object_id": "2005-002A",
        "meta_epoch": "2025-12-20T00:41:25.969056",
        "meta_mean_motion": 13.87903927,
        "meta_eccentricity": 0.0041248,
        "meta_inclination": 82.9488,
        "meta_ra_of_asc_node": 179.148,
        "meta_arg_of_pericenter": 119.4004,
        "meta_mean_anomaly": 241.1287,
        "meta_ephemeris_type": 0,
        "meta_classification_type": "U",
        "meta_norad_cat_id": 28521,
        "meta_element_set_no": 999,
        "meta_rev_at_epoch": 5896,
        "meta_bstar": 4.5926e-05,
        "meta_mean_motion_dot": 7.1e-07,
        "meta_mean_motion_ddot": 0,
        "tle_line1": "1 28521U 05002A   25354.02877279  .00000071  00000+0  45926-4 0  9993",
        "tle_line2": "2 28521  82.9488 179.1480 0041248 119.4004 241.1287 13.87903927 58969"
      },
      "geometry": {
        "type": "Point",
        "coordinates": [
          -82.62451106158947,
          82.86566552382985
        ]
      }
    },
    {
      "type": "Feature",
      "properties": {
        "norad_id": 32052,
        "name": "COSMOS 2429",
        "group": "musson",
        "lat": -49.69626003354088,
        "lon": 165.95507521118097,
        "alt_km": 1011.797377047581,
        "timestamp": "2025-12-20T11:30:28.647033+00:00",
        "meta_object_name": "COSMOS 2429",
        "meta_object_id": "2007-038A",
        "meta_epoch": "2025-12-20T05:09:10.530144",
        "meta_mean_motion": 13.75150139,
        "meta_eccentricity": 0.0038814,
        "meta_inclination": 82.9805,
        "meta_ra_of_asc_node": 337.7979,
        "meta_arg_of_pericenter": 17.3604,
        "meta_mean_anomaly": 342.8869,
        "meta_ephemeris_type": 0,
        "meta_classification_type": "U",
        "meta_norad_cat_id": 32052,
        "meta_element_set_no": 999,
        "meta_rev_at_epoch": 91705,
        "meta_bstar": 3.7708e-05,
        "meta_mean_motion_dot": 5.2e-07,
        "meta_mean_motion_ddot": 0,
        "tle_line1": "1 32052U 07038A   25354.21470521  .00000052  00000+0  37708-4 0  9996",
        "tle_line2": "2 32052  82.9805 337.7979 0038814  17.3604 342.8869 13.75150139917053"
      },
      "geometry": {
        "type": "Point",
        "coordinates": [
          165.95507521118097,
          -49.69626003354088
        ]
      }
    },
    {
      "type": "Feature",
      "properties": {
        "norad_id": 35635,
        "name": "COSMOS 2454",
        "group": "musson",
        "lat": -17.944424494918533,
        "lon": -14.927392164747866,
        "alt_km": 945.9301130835802,
        "timestamp": "2025-12-20T11:30:28.647043+00:00",
        "meta_object_name": "COSMOS 2454",
        "meta_object_id": "2009-039A",
        "meta_epoch": "2025-12-20T00:46:45.983424",
        "meta_mean_motion": 13.89929547,
        "meta_eccentricity": 0.0020238,
        "meta_inclination": 82.9556,
        "meta_ra_of_asc_node": 163.1166,
        "meta_arg_of_pericenter": 54.2109,
        "meta_mean_anomaly": 68.1245,
        "meta_ephemeris_type": 0,
        "meta_classification_type": "U",
        "meta_norad_cat_id": 35635,
        "meta_element_set_no": 999,
        "meta_rev_at_epoch": 83251,
        "meta_bstar": 3.6626e-05,
        "meta_mean_motion_dot": 6.1e-07,
        "meta_mean_motion_ddot": 0,
        "tle_line1": "1 35635U 09039A   25354.03247666  .00000061  00000+0  36626-4 0  9999",
        "tle_line2": "2 35635  82.9556 163.1166 0020238  54.2109  68.1245 13.89929547832511"
      },
      "geometry": {
        "type": "Point",
        "coordinates": [
          -14.927392164747866,
          -17.944424494918533
        ]
      }
    },
    {
      "type": "Feature",
      "properties": {
        "norad_id": 36519,
        "name": "COSMOS 2463",
        "group": "musson",
        "lat": 82.93024779481836,
        "lon": 106.08332015531998,
        "alt_km": 1011.7497179783159,
        "timestamp": "2025-12-20T11:30:28.647064+00:00",
        "meta_object_name": "COSMOS 2463",
        "meta_object_id": "2010-017A",
        "meta_epoch": "2025-12-20T04:24:02.126016",
        "meta_mean_motion": 13.71649756,
        "meta_eccentricity": 0.0034738,
        "meta_inclination": 82.9605,
        "meta_ra_of_asc_node": 21.2424,
        "meta_arg_of_pericenter": 266.6189,
        "meta_mean_anomaly": 161.2989,
        "meta_ephemeris_type": 0,
        "meta_classification_type": "U",
        "meta_norad_cat_id": 36519,
        "meta_element_set_no": 999,
        "meta_rev_at_epoch": 78339,
        "meta_bstar": 4.3115e-05,
        "meta_mean_motion_dot": 5.4e-07,
        "meta_mean_motion_ddot": 0,
        "tle_line1": "1 36519U 10017A   25354.18335794  .00000054  00000+0  43115-4 0  9998",
        "tle_line2": "2 36519  82.9605  21.2424 0034738 266.6189 161.2989 13.71649756783399"
      },
      "geometry": {
        "type": "Point",
        "coordinates": [
          106.08332015531998,
          82.93024779481836
        ]
      }
    }
  ]
}